CCSDS_OMM_VERS = 2.0
CREATION_DATE  = 
ORIGINATOR     = 

OBJECT_NAME    = COSMOS 2550
OBJECT_ID      = 2021-056A
CENTER_NAME    = EARTH
REF_FRAME      = TEME
TIME_SYSTEM    = UTC
MEAN_ELEMENT_THEORY = SGP/SGP4

EPOCH          = 2025-11-07T17:01:48.281376
MEAN_MOTION    = 15.33832179
ECCENTRICITY   = .00083741
INCLINATION    = 67.1420
RA_OF_ASC_NODE = 49.9474
ARG_OF_PERICENTER = 269.6129
MEAN_ANOMALY   = 90.4066

EPHEMERIS_TYPE = 0
CLASSIFICATION_TYPE = U
NORAD_CAT_ID   = 48865
ELEMENT_SET_NO = 999
REV_AT_EPOCH   = 24475
BSTAR          = .1341734E-5
MEAN_MOTION_DOT = -.148E-5
MEAN_MOTION_DDOT = 0

CCSDS_OMM_VERS = 2.0
CREATION_DATE  = 
ORIGINATOR     = 

OBJECT_NAME    = CZ-2C R/B
OBJECT_ID      = 2022-058K
CENTER_NAME    = EARTH
REF_FRAME      = TEME
TIME_SYSTEM    = UTC
MEAN_ELEMENT_THEORY = SGP/SGP4

EPOCH          = 2025-11-10T17:06:08.839584
MEAN_MOTION    = 15.46248747
ECCENTRICITY   = .00490924
INCLINATION    = 50.1900
RA_OF_ASC_NODE = 206.6097
ARG_OF_PERICENTER = 65.3711
MEAN_ANOMALY   = 295.2359

EPHEMERIS_TYPE = 0
CLASSIFICATION_TYPE = U
NORAD_CAT_ID   = 52794
ELEMENT_SET_NO = 999
REV_AT_EPOCH   = 19167
BSTAR          = .59367669E-3
MEAN_MOTION_DOT = .30834E-3
MEAN_MOTION_DDOT = 0

CCSDS_OMM_VERS = 2.0
CREATION_DATE  = 
ORIGINATOR     = 

OBJECT_NAME    = GSLV R/B
OBJECT_ID      = 2022-138AN
CENTER_NAME    = EARTH
REF_FRAME      = TEME
TIME_SYSTEM    = UTC
MEAN_ELEMENT_THEORY = SGP/SGP4

EPOCH          = 2025-11-10T09:56:25.876032
MEAN_MOTION    = 14.95866167
ECCENTRICITY   = .00197545
INCLINATION    = 87.3849
RA_OF_ASC_NODE = 206.2924
ARG_OF_PERICENTER = 220.0501
MEAN_ANOMALY   = 139.9275

EPHEMERIS_TYPE = 0
CLASSIFICATION_TYPE = U
NORAD_CAT_ID   = 54149
ELEMENT_SET_NO = 999
REV_AT_EPOCH   = 16609
BSTAR          = .37646685E-3
MEAN_MOTION_DOT = .4249E-4
MEAN_MOTION_DDOT = 0

CCSDS_OMM_VERS = 2.0
CREATION_DATE  = 
ORIGINATOR     = 

OBJECT_NAME    = XRISM
OBJECT_ID      = 2023-137A
CENTER_NAME    = EARTH
REF_FRAME      = TEME
TIME_SYSTEM    = UTC
MEAN_ELEMENT_THEORY = SGP/SGP4

EPOCH          = 2025-11-10T09:07:22.883808
MEAN_MOTION    = 15.09834046
ECCENTRICITY   = .00081439
INCLINATION    = 31.0034
RA_OF_ASC_NODE = 334.3986
ARG_OF_PERICENTER = 277.2829
MEAN_ANOMALY   = 82.6883

EPHEMERIS_TYPE = 0
CLASSIFICATION_TYPE = U
NORAD_CAT_ID   = 57800
ELEMENT_SET_NO = 999
REV_AT_EPOCH   = 11973
BSTAR          = .49191595E-3
MEAN_MOTION_DOT = .8256E-4
MEAN_MOTION_DDOT = 0

CCSDS_OMM_VERS = 2.0
CREATION_DATE  = 
ORIGINATOR     = 

OBJECT_NAME    = ACS3
OBJECT_ID      = 2024-077B
CENTER_NAME    = EARTH
REF_FRAME      = TEME
TIME_SYSTEM    = UTC
MEAN_ELEMENT_THEORY = SGP/SGP4

EPOCH          = 2025-11-10T10:45:04.554432
MEAN_MOTION    = 13.83371939
ECCENTRICITY   = .00523163
INCLINATION    = 97.3179
RA_OF_ASC_NODE = 277.2192
ARG_OF_PERICENTER = 28.3114
MEAN_ANOMALY   = 332.0872

EPHEMERIS_TYPE = 0
CLASSIFICATION_TYPE = U
NORAD_CAT_ID   = 59588
ELEMENT_SET_NO = 999
REV_AT_EPOCH   = 7767
BSTAR          = .28919367E-1
MEAN_MOTION_DOT = .32233E-3
MEAN_MOTION_DDOT = 0

