COSMOS 2550             
1 48865U 21056A   25311.70958659 -.00000148  00000+0  13417-5 0  9990
2 48865  67.1420  49.9474 0008374 269.6129  90.4066 15.33832179244756
CZ-2C R/B               
1 52794U 22058K   25314.71260231  .00030834  00000+0  59368-3 0  9992
2 52794  50.1900 206.6097 0049092  65.3711 295.2359 15.46248747191678
GSLV R/B                
1 54149U 22138AN  25314.41418838  .00004249  00000+0  37647-3 0  9999
2 54149  87.3849 206.2924 0019754 220.0501 139.9275 14.95866167166096
XRISM                   
1 57800U 23137A   25314.38012597  .00008256  00000+0  49192-3 0  9994
2 57800  31.0034 334.3986 0008143 277.2829  82.6883 15.09834046119738
ACS3                    
1 59588U 24077B   25314.44796938  .00032233  00000+0  28919-1 0  9992
2 59588  97.3179 277.2192 0052316  28.3114 332.0872 13.83371939 77678
